{"fetched_at":"2026-07-15T06:36:24.157Z","source":"https://celestrak.org/NORAD/elements/gp.php?NAME=SENTINEL&FORMAT=JSON","constellation":"sentinel-2","records":[{"OBJECT_NAME":"SENTINEL-2A","OBJECT_ID":"2015-028A","EPOCH":"2026-07-14T23:26:47.182272","CLASSIFICATION_TYPE":"U","MEAN_MOTION":14.3081344,"ECCENTRICITY":0.00012799,"INCLINATION":98.5684,"RA_OF_ASC_NODE":270.4327,"ARG_OF_PERICENTER":94.3772,"MEAN_ANOMALY":265.7557,"EPHEMERIS_TYPE":0,"NORAD_CAT_ID":40697,"ELEMENT_SET_NO":999,"REV_AT_EPOCH":57770,"BSTAR":-0.000045263602,"MEAN_MOTION_DOT":-0.00000162,"MEAN_MOTION_DDOT":0},{"OBJECT_NAME":"SENTINEL-2B","OBJECT_ID":"2017-013A","EPOCH":"2026-07-14T23:16:26.039712","CLASSIFICATION_TYPE":"U","MEAN_MOTION":14.30814635,"ECCENTRICITY":0.00012144,"INCLINATION":98.5692,"RA_OF_ASC_NODE":270.3507,"ARG_OF_PERICENTER":90.7203,"MEAN_ANOMALY":269.4119,"EPHEMERIS_TYPE":0,"NORAD_CAT_ID":42063,"ELEMENT_SET_NO":999,"REV_AT_EPOCH":48861,"BSTAR":0.000009091424,"MEAN_MOTION_DOT":-2e-7,"MEAN_MOTION_DDOT":0},{"OBJECT_NAME":"SENTINEL-2C","OBJECT_ID":"2024-157A","EPOCH":"2026-07-14T19:04:42.425472","CLASSIFICATION_TYPE":"U","MEAN_MOTION":14.30815595,"ECCENTRICITY":0.00009569,"INCLINATION":98.5685,"RA_OF_ASC_NODE":270.1851,"ARG_OF_PERICENTER":103.6589,"MEAN_ANOMALY":256.4701,"EPHEMERIS_TYPE":0,"NORAD_CAT_ID":60989,"ELEMENT_SET_NO":999,"REV_AT_EPOCH":9693,"BSTAR":0.000033212914,"MEAN_MOTION_DOT":4.3e-7,"MEAN_MOTION_DDOT":0}]}
