SENTINEL-2A             
1 40697U 15028A   26195.97693498 -.00000162  00000+0 -45264-4 0  9995
2 40697  98.5684 270.4327 0001279  94.3772 265.7557 14.30813440577705
SENTINEL-2B             
1 42063U 17013A   26195.96974583 -.00000020  00000+0  90914-5 0  9991
2 42063  98.5692 270.3507 0001214  90.7203 269.4119 14.30814635488613
SENTINEL-2C             
1 60989U 24157A   26195.79493548  .00000043  00000+0  33213-4 0  9995
2 60989  98.5685 270.1851 0000956 103.6589 256.4701 14.30815595 96934
